{
  "norad_id": 64728,
  "name": "STARLINK-34239",
  "history": [
    {
      "epoch": "2026-03-28T07:18:02.625120Z",
      "apogee_km": 476.04346359778447,
      "perigee_km": 474.3671360712451,
      "latitude_deg": 1.4692238765256048e-05,
      "longitude_deg": 159.21430695845558,
      "height_km": 476.1241897999924,
      "semi_major_axis_km": 6853.342299834515,
      "eccentricity": 0.0001223,
      "inclination_deg": 53.1591,
      "raan_deg": 94.4518,
      "arg_perigee_deg": 91.4253,
      "mean_anomaly_deg": 268.6888,
      "mean_motion_rev_day": 15.30203272
    },
    {
      "epoch": "2026-03-29T05:14:47.090976Z",
      "apogee_km": 476.05042933283494,
      "perigee_km": 474.28501803601466,
      "latitude_deg": -3.0983004290831624e-05,
      "longitude_deg": -175.12207888869798,
      "height_km": 475.81952901141534,
      "semi_major_axis_km": 6853.304723684425,
      "eccentricity": 0.0001288,
      "inclination_deg": 53.1589,
      "raan_deg": 90.202,
      "arg_perigee_deg": 73.8037,
      "mean_anomaly_deg": 286.3105,
      "mean_motion_rev_day": 15.30215857
    }
  ]
}